[{"OBJECT_NAME":"HAWK-11C","OBJECT_ID":"2024-247E","EPOCH":"2026-03-09T12:17:35.407968","MEAN_MOTION":15.2884802,"ECCENTRICITY":0.00059001,"INCLINATION":45.0045,"RA_OF_ASC_NODE":114.8762,"ARG_OF_PERICENTER":329.704,"MEAN_ANOMALY":30.3502,"EPHEMERIS_TYPE":0,"CLASSIFICATION_TYPE":"U","NORAD_CAT_ID":62381,"ELEMENT_SET_NO":999,"REV_AT_EPOCH":6774,"BSTAR":0.00033290115,"MEAN_MOTION_DOT":9.223e-5,"MEAN_MOTION_DDOT":0},{"OBJECT_NAME":"STARLINK-34528","OBJECT_ID":"2025-133H","EPOCH":"2026-03-09T10:48:59.064768","MEAN_MOTION":15.30170743,"ECCENTRICITY":0.00013093,"INCLINATION":53.16,"RA_OF_ASC_NODE":117.7817,"ARG_OF_PERICENTER":68.2412,"MEAN_ANOMALY":291.8728,"EPHEMERIS_TYPE":0,"CLASSIFICATION_TYPE":"U","NORAD_CAT_ID":64479,"ELEMENT_SET_NO":999,"REV_AT_EPOCH":4113,"BSTAR":0.00027991027,"MEAN_MOTION_DOT":7.932e-5,"MEAN_MOTION_DDOT":0}]
